IRIDIUM 39              
1 25042U 97069D   25210.45412264  .00000605  00000+0  15311-3 0  9996
2 25042  86.3936 193.0177 0018489 158.7911 201.4063 14.49257750455082
IRIDIUM 38              
1 25043U 97069E   25210.54242103  .00000385  00000+0  12048-3 0  9999
2 25043  86.3949 215.3382 0001805  33.8591 326.2722 14.38143919452044
IRIDIUM 42              
1 25077U 97077A   25210.67031633  .00000326  00000+0  10482-3 0  9998
2 25077  86.3946 221.5048 0002104  69.7617 290.3806 14.36376843447293
IRIDIUM 44              
1 25078U 97077B   25210.51012683  .00000392  00000+0  11754-3 0  9992
2 25078  86.3967 203.3931 0000809 140.7212 219.4046 14.40267163449791
IRIDIUM 45              
1 25104U 97082A   25210.89850937  .00023699  00000+0  82133-3 0  9995
2 25104  86.3575  27.1247 0114494 170.5095 189.8353 15.23552224458792
IRIDIUM 24              
1 25105U 97082B   25210.56744897  .00000409  00000+0  11848-3 0  9996
2 25105  86.3866  62.3160 0009596 304.8677  55.1620 14.42129931449578
IRIDIUM 51              
1 25262U 98018A   25210.76383771  .00040763  00000+0  82906-3 0  9992
2 25262  86.3809  34.7033 0083845  86.4318 274.6522 15.42304429453803
IRIDIUM 57              
1 25273U 98019B   25210.47175852  .00000335  00000+0  10895-3 0  9991
2 25273  86.3986 127.5537 0002133  83.9280 276.2160 14.35916286430859
